0 GALAXY 3R
1 23741U 95069A   13280.45640977 -.00000256  00000-0  00000+0 0  5744
2 23741 007.9489 053.2933 0003572 084.4176 326.7654 01.00291933 65325
0 GALAXY 3R
1 23741U 95069A   13283.37828689 -.00000265  00000-0  00000+0 0  5757
2 23741 007.9545 053.2615 0003401 087.9948 298.1728 01.00291307 65353
0 GALAXY 3R
1 23741U 95069A   13286.29163333 -.00000271  00000-0  00000+0 0  5767
2 23741 007.9600 053.2294 0003174 090.8594 267.2054 01.00290774 65384
0 GALAXY 3R
1 23741U 95069A   13289.26772661 -.00000272  00000-0  00000+0 0  5779
2 23741 007.9653 053.1960 0002944 092.0940 260.5205 01.00290009 65413
0 GALAXY 3R
1 23741U 95069A   13291.34300718 -.00000270  00000-0  00000+0 0  5780
2 23741 007.9691 053.1726 0002802 090.9333 290.9808 01.00289325 65438
0 GALAXY 3R
1 23741U 95069A   13293.42377049 -.00000268  00000-0  00000+0 0  5790
2 23741 007.9729 053.1493 0002683 089.7319 323.4589 01.00288584 65454
